{"type": "FeatureCollection", "features": [ {"type": "Feature", "properties": {"norad_id": 66799, "name": "STARLINK-36044", "group": "last-30-days", "lat": 29.153106920950037, "lon": -146.44611120055578, "alt_km": 411.11728456570654, "timestamp": "2025-12-25T07:00:32.764105+00:00", "meta": {"OBJECT_NAME": "STARLINK-36044", "OBJECT_ID": "2025-278J", "EPOCH": "2025-12-24T22:00:03.000096", "MEAN_MOTION": 15.50499745, "ECCENTRICITY": 0.00017107, "INCLINATION": 43.0004, "RA_OF_ASC_NODE": 178.9804, "ARG_OF_PERICENTER": 274.2465, "MEAN_ANOMALY": 193.741, "EPHEMERIS_TYPE": 0, "CLASSIFICATION_TYPE": "U", "NORAD_CAT_ID": 66799, "ELEMENT_SET_NO": 999, "REV_AT_EPOCH": 491, "BSTAR": 0.0017846335, "MEAN_MOTION_DOT": 0.00105478, "MEAN_MOTION_DDOT": 0}, "tle": {"line1": "1 66799U 25278J   25358.91670139  .00105478  00000+0  17846-2 0  9992", "line2": "2 66799  43.0004 178.9804 0001710 274.2465 193.7410 15.50499745  4914"}}, "geometry": {"type": "Point", "coordinates": [-146.44611120055578, 29.153106920950037]}}, {"type": "Feature", "properties": {"norad_id": 66800, "name": "STARLINK-35996", "group": "last-30-days", "lat": 31.201085652379856, "lon": -142.68889496948634, "alt_km": 410.90203623336583, "timestamp": "2025-12-25T07:00:32.764115+00:00", "meta": {"OBJECT_NAME": "STARLINK-35996", "OBJECT_ID": "2025-278K", "EPOCH": "2025-12-24T22:00:03.000096", "MEAN_MOTION": 15.5055859, "ECCENTRICITY": 0.00015796, "INCLINATION": 43.0003, "RA_OF_ASC_NODE": 178.9703, "ARG_OF_PERICENTER": 270.8054, "MEAN_ANOMALY": 201.0012, "EPHEMERIS_TYPE": 0, "CLASSIFICATION_TYPE": "U", "NORAD_CAT_ID": 66800, "ELEMENT_SET_NO": 999, "REV_AT_EPOCH": 470, "BSTAR": -2.0841836e-05, "MEAN_MOTION_DOT": -1.563e-05, "MEAN_MOTION_DDOT": 0}, "tle": {"line1": "1 66800U 25278K   25358.91670139 -.00001563  00000+0 -20842-4 0  9999", "line2": "2 66800  43.0003 178.9703 0001579 270.8054 201.0012 15.50558590  4705"}}, "geometry": {"type": "Point", "coordinates": [-142.68889496948634, 31.201085652379856]}}, {"type": "Feature", "properties": {"norad_id": 66801, "name": "STARLINK-36080", "group": "last-30-days", "lat": 35.776278887487905, "lon": -132.60071971254087, "alt_km": 410.52949906633876, "timestamp": "2025-12-25T07:00:32.764129+00:00", "meta": {"OBJECT_NAME": "STARLINK-36080", "OBJECT_ID": "2025-278L", "EPOCH": "2025-12-24T22:00:03.000096", "MEAN_MOTION": 15.50497135, "ECCENTRICITY": 0.00021211, "INCLINATION": 43.0004, "RA_OF_ASC_NODE": 178.9454, "ARG_OF_PERICENTER": 269.6147, "MEAN_ANOMALY": 211.7964, "EPHEMERIS_TYPE": 0, "CLASSIFICATION_TYPE": "U", "NORAD_CAT_ID": 66801, "ELEMENT_SET_NO": 999, "REV_AT_EPOCH": 491, "BSTAR": 0.0018128789, "MEAN_MOTION_DOT": 0.00107168, "MEAN_MOTION_DDOT": 0}, "tle": {"line1": "1 66801U 25278L   25358.91670139  .00107168  00000+0  18129-2 0  9999", "line2": "2 66801  43.0004 178.9454 0002121 269.6147 211.7964 15.50497135  4917"}}, "geometry": {"type": "Point", "coordinates": [-132.60071971254087, 35.776278887487905]}}, {"type": "Feature", "properties": {"norad_id": 66802, "name": "STARLINK-35604", "group": "last-30-days", "lat": 30.189606001454894, "lon": -144.58872747944898, "alt_km": 411.1541565761654, "timestamp": "2025-12-25T07:00:32.764140+00:00", "meta": {"OBJECT_NAME": "STARLINK-35604", "OBJECT_ID": "2025-278M", "EPOCH": "2025-12-24T22:00:03.000096", "MEAN_MOTION": 15.50491337, "ECCENTRICITY": 0.00020576, "INCLINATION": 43.0004, "RA_OF_ASC_NODE": 178.9755, "ARG_OF_PERICENTER": 271.8983, "MEAN_ANOMALY": 198.0082, "EPHEMERIS_TYPE": 0, "CLASSIFICATION_TYPE": "U", "NORAD_CAT_ID": 66802, "ELEMENT_SET_NO": 999, "REV_AT_EPOCH": 491, "BSTAR": 0.0021188944, "MEAN_MOTION_DOT": 0.00125587, "MEAN_MOTION_DDOT": 0}, "tle": {"line1": "1 66802U 25278M   25358.91670139  .00125587  00000+0  21189-2 0  9995", "line2": "2 66802  43.0004 178.9755 0002057 271.8983 198.0082 15.50491337  4919"}}, "geometry": {"type": "Point", "coordinates": [-144.58872747944898, 30.189606001454894]}}, {"type": "Feature", "properties": {"norad_id": 66803, "name": "STARLINK-35565", "group": "last-30-days", "lat": 24.31417841270946, "lon": -154.1923361950896, "alt_km": 429.15515257661355, "timestamp": "2025-12-25T07:00:32.764150+00:00", "meta": {"OBJECT_NAME": "STARLINK-35565", "OBJECT_ID": "2025-278N", "EPOCH": "2025-12-24T22:00:03.000096", "MEAN_MOTION": 15.46280359, "ECCENTRICITY": 0.00017211, "INCLINATION": 43.0004, "RA_OF_ASC_NODE": 178.984, "ARG_OF_PERICENTER": 284.1195, "MEAN_ANOMALY": 182.3011, "EPHEMERIS_TYPE": 0, "CLASSIFICATION_TYPE": "U", "NORAD_CAT_ID": 66803, "ELEMENT_SET_NO": 999, "REV_AT_EPOCH": 500, "BSTAR": -0.044330512, "MEAN_MOTION_DOT": -0.01996122, "MEAN_MOTION_DDOT": 0}, "tle": {"line1": "1 66803U 25278N   25358.91670139 -.01996122  00000+0 -44331-1 0  9993", "line2": "2 66803  43.0004 178.9840 0001721 284.1195 182.3011 15.46280359  5008"}}, "geometry": {"type": "Point", "coordinates": [-154.1923361950896, 24.31417841270946]}}, {"type": "Feature", "properties": {"norad_id": 66804, "name": "STARLINK-36038", "group": "last-30-days", "lat": 27.880503809374083, "lon": -148.61907795771708, "alt_km": 424.8549908179666, "timestamp": "2025-12-25T07:00:32.764162+00:00", "meta": {"OBJECT_NAME": "STARLINK-36038", "OBJECT_ID": "2025-278P", "EPOCH": "2025-12-24T22:00:03.000096", "MEAN_MOTION": 15.47361784, "ECCENTRICITY": 0.0001627, "INCLINATION": 43.0003, "RA_OF_ASC_NODE": 178.9724, "ARG_OF_PERICENTER": 284.6392, "MEAN_ANOMALY": 186.3247, "EPHEMERIS_TYPE": 0, "CLASSIFICATION_TYPE": "U", "NORAD_CAT_ID": 66804, "ELEMENT_SET_NO": 999, "REV_AT_EPOCH": 491, "BSTAR": -0.037132275, "MEAN_MOTION_DOT": -0.01732055, "MEAN_MOTION_DDOT": 0}, "tle": {"line1": "1 66804U 25278P   25358.91670139 -.01732055  00000+0 -37132-1 0  9998", "line2": "2 66804  43.0003 178.9724 0001627 284.6392 186.3247 15.47361784  4915"}}, "geometry": {"type": "Point", "coordinates": [-148.61907795771708, 27.880503809374083]}}, {"type": "Feature", "properties": {"norad_id": 66805, "name": "STARLINK-36049", "group": "last-30-days", "lat": 34.223101599137664, "lon": -136.36184738121185, "alt_km": 416.3770585412385, "timestamp": "2025-12-25T07:00:32.764173+00:00", "meta": {"OBJECT_NAME": "STARLINK-36049", "OBJECT_ID": "2025-278Q", "EPOCH": "2025-12-24T22:00:03.000096", "MEAN_MOTION": 15.50296056, "ECCENTRICITY": 0.00016295, "INCLINATION": 43.0002, "RA_OF_ASC_NODE": 178.9499, "ARG_OF_PERICENTER": 276.0013, "MEAN_ANOMALY": 203.4237, "EPHEMERIS_TYPE": 0, "CLASSIFICATION_TYPE": "U", "NORAD_CAT_ID": 66805, "ELEMENT_SET_NO": 999, "REV_AT_EPOCH": 491, "BSTAR": -0.039473353, "MEAN_MOTION_DOT": -0.02042728, "MEAN_MOTION_DDOT": 0}, "tle": {"line1": "1 66805U 25278Q   25358.91670139 -.02042728  00000+0 -39473-1 0  9991", "line2": "2 66805  43.0002 178.9499 0001629 276.0013 203.4237 15.50296056  4914"}}, "geometry": {"type": "Point", "coordinates": [-136.36184738121185, 34.223101599137664]}}, {"type": "Feature", "properties": {"norad_id": 66806, "name": "STARLINK-36069", "group": "last-30-days", "lat": 34.048978326728786, "lon": -136.75740676197614, "alt_km": 410.6747228577851, "timestamp": "2025-12-25T07:00:32.764183+00:00", "meta": {"OBJECT_NAME": "STARLINK-36069", "OBJECT_ID": "2025-278R", "EPOCH": "2025-12-24T22:00:03.000096", "MEAN_MOTION": 15.50487002, "ECCENTRICITY": 0.00021267, "INCLINATION": 43.0004, "RA_OF_ASC_NODE": 178.9559, "ARG_OF_PERICENTER": 270.2581, "MEAN_ANOMALY": 207.3198, "EPHEMERIS_TYPE": 0, "CLASSIFICATION_TYPE": "U", "NORAD_CAT_ID": 66806, "ELEMENT_SET_NO": 999, "REV_AT_EPOCH": 470, "BSTAR": 0.0025399547, "MEAN_MOTION_DOT": 0.00151083, "MEAN_MOTION_DDOT": 0}, "tle": {"line1": "1 66806U 25278R   25358.91670139  .00151083  00000+0  25400-2 0  9999", "line2": "2 66806  43.0004 178.9559 0002126 270.2581 207.3198 15.50487002  4702"}}, "geometry": {"type": "Point", "coordinates": [-136.75740676197614, 34.048978326728786]}}, {"type": "Feature", "properties": {"norad_id": 66807, "name": "STARLINK-36000", "group": "last-30-days", "lat": 36.59098629569396, "lon": -130.4375288061803, "alt_km": 410.24076759011496, "timestamp": "2025-12-25T07:00:32.764193+00:00", "meta": {"OBJECT_NAME": "STARLINK-36000", "OBJECT_ID": "2025-278S", "EPOCH": "2025-12-24T22:00:03.000096", "MEAN_MOTION": 15.50563215, "ECCENTRICITY": 0.00017705, "INCLINATION": 43.0004, "RA_OF_ASC_NODE": 178.9415, "ARG_OF_PERICENTER": 274.4828, "MEAN_ANOMALY": 208.8257, "EPHEMERIS_TYPE": 0, "CLASSIFICATION_TYPE": "U", "NORAD_CAT_ID": 66807, "ELEMENT_SET_NO": 999, "REV_AT_EPOCH": 497, "BSTAR": -0.0001565054, "MEAN_MOTION_DOT": -9.507e-05, "MEAN_MOTION_DDOT": 0}, "tle": {"line1": "1 66807U 25278S   25358.91670139 -.00009507  00000+0 -15651-3 0  9993", "line2": "2 66807  43.0004 178.9415 0001770 274.4828 208.8257 15.50563215  4970"}}, "geometry": {"type": "Point", "coordinates": [-130.4375288061803, 36.59098629569396]}}, {"type": "Feature", "properties": {"norad_id": 66808, "name": "STARLINK-36071", "group": "last-30-days", "lat": 37.36126699232581, "lon": -128.24302471246443, "alt_km": 410.0334997368964, "timestamp": "2025-12-25T07:00:32.764203+00:00", "meta": {"OBJECT_NAME": "STARLINK-36071", "OBJECT_ID": "2025-278T", "EPOCH": "2025-12-24T22:00:03.000096", "MEAN_MOTION": 15.50557853, "ECCENTRICITY": 0.00015873, "INCLINATION": 43.0004, "RA_OF_ASC_NODE": 178.9367, "ARG_OF_PERICENTER": 274.3061, "MEAN_ANOMALY": 210.9224, "EPHEMERIS_TYPE": 0, "CLASSIFICATION_TYPE": "U", "NORAD_CAT_ID": 66808, "ELEMENT_SET_NO": 999, "REV_AT_EPOCH": 491, "BSTAR": 1.0879735e-05, "MEAN_MOTION_DOT": 2.96e-06, "MEAN_MOTION_DDOT": 0}, "tle": {"line1": "1 66808U 25278T   25358.91670139  .00000296  00000+0  10880-4 0  9998", "line2": "2 66808  43.0004 178.9367 0001587 274.3061 210.9224 15.50557853  4914"}}, "geometry": {"type": "Point", "coordinates": [-128.24302471246443, 37.36126699232581]}}]}